*******************************************************************************
Revised: Sep 12, 1996           Earth Barycenter                              3
 
 Dynamical point:
 ---------------
 The common point about which the Earth and Moon revolve (center of mass). This
 is approximately 4671 km from the center of the Earth, or about 3/4 of the way 
 to the surface. See 399 for Earth center, or 301 for Moon center ephemeris.

*******************************************************************************
 
 
*******************************************************************************
Ephemeris / WWW_USER Mon Jun 24 14:42:48 2013 Pasadena, USA      / Horizons    
*******************************************************************************
Target body name: Earth-Moon Barycenter (3)       {source: DE405}
Center body name: Solar System Barycenter (0)     {source: DE405}
Center-site name: BODY CENTER
*******************************************************************************
Start time      : A.D. 2019-Jun-18 00:00:00.0000 CT 
Stop  time      : A.D. 2019-Jun-21 00:00:00.0000 CT 
Step-size       : 60 minutes
*******************************************************************************
Center geodetic : 0.00000000,0.00000000,0.0000000 {E-lon(deg),Lat(deg),Alt(km)}
Center cylindric: 0.00000000,0.00000000,0.0000000 {E-lon(deg),Dxy(km),Dz(km)}
Center radii    : (undefined)                                                  
Output units    : KM-S                                                         
Output format   : 01
Reference frame : ICRF/J2000.0                                                 
Output type     : GEOMETRIC cartesian states
Coordinate systm: Ecliptic and Mean Equinox of Reference Epoch                 
*******************************************************************************
JDCT 
   X     Y     Z
*******************************************************************************
$$SOE
2458652.500000000 = A.D. 2019-Jun-18 00:00:00.0000 (CT)
  -1.027864139898070E+07 -1.505240212610334E+08  3.710373597976122E+03
2458652.541666667 = A.D. 2019-Jun-18 01:00:00.0000 (CT)
  -1.017342893507227E+07 -1.505314151123798E+08  3.711811031603243E+03
2458652.583333333 = A.D. 2019-Jun-18 02:00:00.0000 (CT)
  -1.006821164484956E+07 -1.505387346711352E+08  3.713245099991636E+03
2458652.625000000 = A.D. 2019-Jun-18 03:00:00.0000 (CT)
  -9.962989579928435E+06 -1.505459799344713E+08  3.714675803105827E+03
2458652.666666667 = A.D. 2019-Jun-18 04:00:00.0000 (CT)
  -9.857762791925937E+06 -1.505531508995949E+08  3.716103140909479E+03
2458652.708333333 = A.D. 2019-Jun-18 05:00:00.0000 (CT)
  -9.752531332460271E+06 -1.505602475637473E+08  3.717527113402775E+03
2458652.750000000 = A.D. 2019-Jun-18 06:00:00.0000 (CT)
  -9.647295253150765E+06 -1.505672699242047E+08  3.718947720561297E+03
2458652.791666667 = A.D. 2019-Jun-18 07:00:00.0000 (CT)
  -9.542054605617862E+06 -1.505742179782778E+08  3.720364962361589E+03
2458652.833333333 = A.D. 2019-Jun-18 08:00:00.0000 (CT)
  -9.436809441483095E+06 -1.505810917233121E+08  3.721778838798025E+03
2458652.875000000 = A.D. 2019-Jun-18 09:00:00.0000 (CT)
  -9.331559812369063E+06 -1.505878911566877E+08  3.723189349845397E+03
2458652.916666667 = A.D. 2019-Jun-18 10:00:00.0000 (CT)
  -9.226305769899406E+06 -1.505946162758197E+08  3.724596495493141E+03
2458652.958333333 = A.D. 2019-Jun-18 11:00:00.0000 (CT)
  -9.121047365698796E+06 -1.506012670781577E+08  3.726000275739851E+03
2458653.000000000 = A.D. 2019-Jun-18 12:00:00.0000 (CT)
  -9.015784651392899E+06 -1.506078435611860E+08  3.727400690568185E+03
2458653.041666667 = A.D. 2019-Jun-18 13:00:00.0000 (CT)
  -8.910517678608367E+06 -1.506143457224237E+08  3.728797739964968E+03
2458653.083333333 = A.D. 2019-Jun-18 14:00:00.0000 (CT)
  -8.805246498972809E+06 -1.506207735594245E+08  3.730191423919779E+03
2458653.125000000 = A.D. 2019-Jun-18 15:00:00.0000 (CT)
  -8.699971164114768E+06 -1.506271270697770E+08  3.731581742450064E+03
2458653.166666667 = A.D. 2019-Jun-18 16:00:00.0000 (CT)
  -8.594691725663709E+06 -1.506334062511042E+08  3.732968695543666E+03
2458653.208333333 = A.D. 2019-Jun-18 17:00:00.0000 (CT)
  -8.489408235249983E+06 -1.506396111010642E+08  3.734352283177523E+03
2458653.250000000 = A.D. 2019-Jun-18 18:00:00.0000 (CT)
  -8.384120744504818E+06 -1.506457416173495E+08  3.735732505381962E+03
2458653.291666667 = A.D. 2019-Jun-18 19:00:00.0000 (CT)
  -8.278829305060293E+06 -1.506517977976875E+08  3.737109362145849E+03
2458653.333333333 = A.D. 2019-Jun-18 20:00:00.0000 (CT)
  -8.173533968549315E+06 -1.506577796398401E+08  3.738482853464026E+03
2458653.375000000 = A.D. 2019-Jun-18 21:00:00.0000 (CT)
  -8.068234786605592E+06 -1.506636871416041E+08  3.739852979349151E+03
2458653.416666667 = A.D. 2019-Jun-18 22:00:00.0000 (CT)
  -7.962931810863626E+06 -1.506695203008109E+08  3.741219739809818E+03
2458653.458333333 = A.D. 2019-Jun-18 23:00:00.0000 (CT)
  -7.857625092958678E+06 -1.506752791153267E+08  3.742583134840072E+03
2458653.500000000 = A.D. 2019-Jun-19 00:00:00.0000 (CT)
  -7.752314684526754E+06 -1.506809635830523E+08  3.743943164467273E+03
2458653.541666667 = A.D. 2019-Jun-19 01:00:00.0000 (CT)
  -7.647000637204578E+06 -1.506865737019233E+08  3.745299828699219E+03
2458653.583333333 = A.D. 2019-Jun-19 02:00:00.0000 (CT)
  -7.541683002629572E+06 -1.506921094699099E+08  3.746653127525969E+03
2458653.625000000 = A.D. 2019-Jun-19 03:00:00.0000 (CT)
  -7.436361832439838E+06 -1.506975708850171E+08  3.748003060999617E+03
2458653.666666667 = A.D. 2019-Jun-19 04:00:00.0000 (CT)
  -7.331037178274130E+06 -1.507029579452846E+08  3.749349629098444E+03
2458653.708333333 = A.D. 2019-Jun-19 05:00:00.0000 (CT)
  -7.225709091771845E+06 -1.507082706487866E+08  3.750692831869605E+03
2458653.750000000 = A.D. 2019-Jun-19 06:00:00.0000 (CT)
  -7.120377624572974E+06 -1.507135089936324E+08  3.752032669310156E+03
2458653.791666667 = A.D. 2019-Jun-19 07:00:00.0000 (CT)
  -7.015042828318116E+06 -1.507186729779656E+08  3.753369141450446E+03
2458653.833333333 = A.D. 2019-Jun-19 08:00:00.0000 (CT)
  -6.909704754648436E+06 -1.507237625999648E+08  3.754702248324997E+03
2458653.875000000 = A.D. 2019-Jun-19 09:00:00.0000 (CT)
  -6.804363455205632E+06 -1.507287778578430E+08  3.756031989933697E+03
2458653.916666667 = A.D. 2019-Jun-19 10:00:00.0000 (CT)
  -6.699018981631947E+06 -1.507337187498483E+08  3.757358366312958E+03
2458653.958333333 = A.D. 2019-Jun-19 11:00:00.0000 (CT)
  -6.593671385570118E+06 -1.507385852742631E+08  3.758681377506964E+03
2458654.000000000 = A.D. 2019-Jun-19 12:00:00.0000 (CT)
  -6.488320718663361E+06 -1.507433774294047E+08  3.760001023516641E+03
2458654.041666667 = A.D. 2019-Jun-19 13:00:00.0000 (CT)
  -6.382967032555357E+06 -1.507480952136251E+08  3.761317304393095E+03
2458654.083333333 = A.D. 2019-Jun-19 14:00:00.0000 (CT)
  -6.277610378890234E+06 -1.507527386253110E+08  3.762630220150993E+03
2458654.125000000 = A.D. 2019-Jun-19 15:00:00.0000 (CT)
  -6.172250809312520E+06 -1.507573076628837E+08  3.763939770843339E+03
2458654.166666667 = A.D. 2019-Jun-19 16:00:00.0000 (CT)
  -6.066888375467152E+06 -1.507618023247993E+08  3.765245956498555E+03
2458654.208333333 = A.D. 2019-Jun-19 17:00:00.0000 (CT)
  -5.961523128999437E+06 -1.507662226095485E+08  3.766548777146010E+03
2458654.250000000 = A.D. 2019-Jun-19 18:00:00.0000 (CT)
  -5.856155121555036E+06 -1.507705685156567E+08  3.767848232822864E+03
2458654.291666667 = A.D. 2019-Jun-19 19:00:00.0000 (CT)
  -5.750784404779934E+06 -1.507748400416842E+08  3.769144323590925E+03
2458654.333333333 = A.D. 2019-Jun-19 20:00:00.0000 (CT)
  -5.645411030320437E+06 -1.507790371862257E+08  3.770437049487427E+03
2458654.375000000 = A.D. 2019-Jun-19 21:00:00.0000 (CT)
  -5.540035049823126E+06 -1.507831599479108E+08  3.771726410528656E+03
2458654.416666667 = A.D. 2019-Jun-19 22:00:00.0000 (CT)
  -5.434656514934859E+06 -1.507872083254037E+08  3.773012406796144E+03
2458654.458333333 = A.D. 2019-Jun-19 23:00:00.0000 (CT)
  -5.329275477302730E+06 -1.507911823174032E+08  3.774295038314911E+03
2458654.500000000 = A.D. 2019-Jun-20 00:00:00.0000 (CT)
  -5.223891988574061E+06 -1.507950819226430E+08  3.775574305144673E+03
2458654.541666667 = A.D. 2019-Jun-20 01:00:00.0000 (CT)
  -5.118506100396370E+06 -1.507989071398914E+08  3.776850207336054E+03
2458654.583333333 = A.D. 2019-Jun-20 02:00:00.0000 (CT)
  -5.013117864417358E+06 -1.508026579679513E+08  3.778122744926961E+03
2458654.625000000 = A.D. 2019-Jun-20 03:00:00.0000 (CT)
  -4.907727332284884E+06 -1.508063344056605E+08  3.779391917993620E+03
2458654.666666667 = A.D. 2019-Jun-20 04:00:00.0000 (CT)
  -4.802334555646942E+06 -1.508099364518911E+08  3.780657726572626E+03
2458654.708333333 = A.D. 2019-Jun-20 05:00:00.0000 (CT)
  -4.696939586151641E+06 -1.508134641055503E+08  3.781920170742109E+03
2458654.750000000 = A.D. 2019-Jun-20 06:00:00.0000 (CT)
  -4.591542475447178E+06 -1.508169173655798E+08  3.783179250533725E+03
2458654.791666667 = A.D. 2019-Jun-20 07:00:00.0000 (CT)
  -4.486143275181832E+06 -1.508202962309560E+08  3.784434966048004E+03
2458654.833333333 = A.D. 2019-Jun-20 08:00:00.0000 (CT)
  -4.380742037003925E+06 -1.508236007006899E+08  3.785687317313477E+03
2458654.875000000 = A.D. 2019-Jun-20 09:00:00.0000 (CT)
  -4.275338812561799E+06 -1.508268307738273E+08  3.786936304408864E+03
2458654.916666667 = A.D. 2019-Jun-20 10:00:00.0000 (CT)
  -4.169933653503823E+06 -1.508299864494487E+08  3.788181927396956E+03
2458654.958333333 = A.D. 2019-Jun-20 11:00:00.0000 (CT)
  -4.064526611478330E+06 -1.508330677266692E+08  3.789424186351524E+03
2458655.000000000 = A.D. 2019-Jun-20 12:00:00.0000 (CT)
  -3.959117738133627E+06 -1.508360746046385E+08  3.790663081339080E+03
2458655.041666667 = A.D. 2019-Jun-20 13:00:00.0000 (CT)
  -3.853707085117960E+06 -1.508390070825412E+08  3.791898612420235E+03
